OBJECT_NAME,OBJECT_ID,EPOCH,MEAN_MOTION,ECCENTRICITY,INCLINATION,RA_OF_ASC_NODE,ARG_OF_PERICENTER,MEAN_ANOMALY,EPHEMERIS_TYPE,CLASSIFICATION_TYPE,NORAD_CAT_ID,ELEMENT_SET_NO,REV_AT_EPOCH,BSTAR,MEAN_MOTION_DOT,MEAN_MOTION_DDOT
ASTRA 2E,2013-056A,2026-07-10T20:31:38.859168,1.00272847,.0002748,0.0833,308.0399,178.2283,138.9060,0,U,39285,999,4665,0,.159E-5,0
FM-6,2013-058A,2026-07-10T14:45:48.673152,1.00269779,.0001283,0.0175,39.7148,137.6192,216.2996,0,U,39360,999,4630,0,-.6E-7,0
RADUGA-1M 3,2013-062A,2026-07-09T17:14:28.833792,1.00273093,.00017957,6.0122,72.0649,269.8581,239.3395,0,U,39375,999,4633,0,.16E-5,0
SES-8,2013-071A,2026-07-10T15:28:19.156224,1.00271334,.00026366,0.0500,264.8568,204.5510,146.2374,0,U,39460,999,4466,0,-.26E-5,0
INMARSAT 5-F1,2013-073A,2026-07-09T22:30:20.555424,1.00273292,.00003968,0.0182,38.9022,284.8791,4.3070,0,U,39476,999,4580,0,.39E-6,0
TKSAT-1 (TUPAC KATARI),2013-075A,2026-07-10T13:11:24.071424,1.00272171,.00023917,0.0483,115.3931,356.9429,286.7939,0,U,39481,999,4583,0,-.185E-5,0
GSAT-14,2014-001A,2026-07-10T13:57:23.405760,1.00270169,.00018853,0.0208,42.2969,172.2714,357.2543,0,U,39498,999,4561,0,0,0
THAICOM 6,2014-002A,2026-07-10T17:51:38.600064,1.00268382,.0004564,0.0411,122.3697,2.8433,149.8196,0,U,39500,999,4569,0,-.111E-5,0
TDRS 12,2014-004A,2026-07-10T19:00:29.690784,1.00273949,.0004259,4.0001,19.4572,203.9979,309.4889,0,U,39504,999,4451,0,-.264E-5,0
ABS-2,2014-006A,2026-07-10T20:48:15.413184,1.00270999,.0003318,0.0263,289.8858,166.7632,219.1087,0,U,39508,999,4551,0,-.77E-6,0
ATHENA-FIDUS,2014-006B,2026-07-10T12:04:23.819808,1.00273357,.00012527,0.0133,99.4239,25.2830,22.6260,0,U,39509,999,4532,0,.164E-5,0
TURKSAT 4A,2014-007A,2026-07-10T20:23:38.406048,1.00271870,.0001147,0.0682,285.1630,326.9068,24.5897,0,U,39522,999,4520,0,.155E-5,0
EXPRESS-AT1,2014-010A,2026-07-10T20:45:38.165184,1.00308579,.0004449,0.3149,85.5156,53.6751,166.3052,0,U,39612,999,4505,0,.5E-7,0
EXPRESS-AT2,2014-010B,2026-07-10T17:17:33.201024,1.00276546,.0000847,0.0128,324.4099,2.4575,277.1517,0,U,39613,999,4473,0,.87E-6,0
AMAZONAS 4A,2014-011A,2026-07-10T18:23:12.774048,1.00270931,.0004627,0.0609,203.6595,292.5675,354.2753,0,U,39616,999,4495,0,-.243E-5,0
ASTRA 5B,2014-011B,2026-07-10T12:00:24.203232,1.00271823,.00017849,0.0626,314.2374,162.6118,15.1666,0,U,39617,999,4490,0,.147E-5,0
IRNSS-1B,2014-017A,2026-07-10T17:17:10.737024,1.00274378,.0022328,28.8825,239.9967,191.5584,171.4704,0,U,39635,999,4503,0,.149E-5,0
LUCH-5V,2014-023A,2026-07-10T19:47:21.715296,1.00275574,.0001989,5.1873,69.4951,72.1798,178.5837,0,U,39727,999,4459,0,-.265E-5,0
KAZSAT-3,2014-023B,2026-07-10T10:27:29.841984,1.00271045,.00002395,0.0104,17.0509,270.3344,216.3511,0,U,39728,999,4269,0,.71E-6,0
EUTELSAT 3B,2014-030A,2026-07-10T20:27:48.585888,1.00269828,.0004113,0.0612,350.3344,123.0259,125.4595,0,U,39773,999,4430,0,.28E-6,0
ASIASAT 8 (AMOS-7),2014-046A,2026-07-10T20:56:59.576064,1.00269525,.0001316,0.0174,348.5458,130.5579,229.2387,0,U,40107,999,10238,0,-.324E-5,0
ASIASAT 6,2014-052A,2026-07-10T19:18:32.812416,1.00267169,.0000847,0.0255,37.9102,130.8159,169.5384,0,U,40141,999,4331,0,0,0
OPTUS 10,2014-054A,2026-07-10T11:11:11.287104,1.00271044,.00019462,0.0483,69.5916,41.3086,141.2837,0,U,40146,999,4326,0,-.137E-5,0
MEASAT-3B,2014-054B,2026-07-10T20:52:59.957760,1.00270807,.0003502,0.0351,42.7420,23.2565,267.5309,0,U,40147,999,4314,0,-.233E-5,0
HIMAWARI-8,2014-060A,2026-07-09T21:09:54.851040,1.00269387,.00008296,0.0305,288.7018,203.5253,253.7182,0,U,40267,999,4298,0,-.264E-5,0
IRNSS-1C,2014-061A,2026-07-10T19:07:56.330400,1.00273045,.0022146,6.5761,88.4824,4.9478,205.2945,0,U,40269,999,4292,0,-.16E-5,0
INTELSAT 30 (IS-30),2014-062A,2026-07-10T06:18:34.396704,1.00271243,.00012376,0.0192,51.4260,336.2755,260.0814,0,U,40271,999,702,0,-.14E-5,0
ARSAT 1,2014-062B,2026-07-10T13:15:31.177152,1.00271465,.0001755,0.0481,282.6282,185.8826,307.0436,0,U,40272,999,4285,0,-.25E-5,0
EUTELSAT 53A,2014-064A,2026-07-10T17:16:48.273024,1.00267699,.0001804,0.0142,313.6779,246.0113,41.1440,0,U,40277,999,4180,0,.108E-5,0
GSAT-16,2014-078A,2026-07-10T20:42:38.452320,1.00271998,.0007281,0.0223,293.3660,158.4942,202.6528,0,U,40332,999,4234,0,.93E-6,0
DIRECTV 14,2014-078B,2026-07-10T15:00:25.975296,1.00269904,.0000268,0.0097,22.1783,296.2025,96.0342,0,U,40333,999,4227,0,-.116E-5,0
