ASTRA 2E                
1 39285U 13056A   26191.85531087  .00000159  00000+0  00000+0 0  9991
2 39285   0.0833 308.0399 0002748 178.2283 138.9060  1.00272847 46656
FM-6                    
1 39360U 13058A   26191.61514668 -.00000006  00000+0  00000+0 0  9999
2 39360   0.0175  39.7148 0001283 137.6192 216.2996  1.00269779 46300
RADUGA-1M 3             
1 39375U 13062A   26190.71838928  .00000160  00000+0  00000+0 0  9998
2 39375   6.0122  72.0649 0001795 269.8581 239.3395  1.00273093 46334
SES-8                   
1 39460U 13071A   26191.64466616 -.00000260  00000+0  00000+0 0  9999
2 39460   0.0500 264.8568 0002636 204.5510 146.2374  1.00271334 44660
INMARSAT 5-F1           
1 39476U 13073A   26190.93773791  .00000039  00000+0  00000+0 0  9997
2 39476   0.0182  38.9022 0000396 284.8791   4.3070  1.00273292 45800
TKSAT-1 (TUPAC KATARI)  
1 39481U 13075A   26191.54958416 -.00000185  00000+0  00000+0 0  9995
2 39481   0.0483 115.3931 0002391 356.9429 286.7939  1.00272171 45833
GSAT-14                 
1 39498U 14001A   26191.58152090  .00000000  00000+0  00000+0 0  9996
2 39498   0.0208  42.2969 0001885 172.2714 357.2543  1.00270169 45614
THAICOM 6               
1 39500U 14002A   26191.74419676 -.00000111  00000+0  00000+0 0  9999
2 39500   0.0411 122.3697 0004564   2.8433 149.8196  1.00268382 45696
TDRS 12                 
1 39504U 14004A   26191.79201031 -.00000264  00000+0  00000+0 0  9993
2 39504   4.0001  19.4572 0004259 203.9979 309.4889  1.00273949 44515
ABS-2                   
1 39508U 14006A   26191.86684506 -.00000077  00000+0  00000+0 0  9991
2 39508   0.0263 289.8858 0003318 166.7632 219.1087  1.00270999 45512
ATHENA-FIDUS            
1 39509U 14006B   26191.50305347  .00000164  00000+0  00000+0 0  9992
2 39509   0.0133  99.4239 0001252  25.2830  22.6260  1.00273357 45321
TURKSAT 4A              
1 39522U 14007A   26191.84975007  .00000155  00000+0  00000+0 0  9991
2 39522   0.0682 285.1630 0001147 326.9068  24.5897  1.00271870 45203
EXPRESS-AT1             
1 39612U 14010A   26191.86502506  .00000005  00000+0  00000+0 0  9991
2 39612   0.3149  85.5156 0004449  53.6751 166.3052  1.00308579 45058
EXPRESS-AT2             
1 39613U 14010B   26191.72052316  .00000087  00000+0  00000+0 0  9996
2 39613   0.0128 324.4099 0000847   2.4575 277.1517  1.00276546 44737
AMAZONAS 4A             
1 39616U 14011A   26191.76612007 -.00000243  00000+0  00000+0 0  9998
2 39616   0.0609 203.6595 0004627 292.5675 354.2753  1.00270931 44951
ASTRA 5B                
1 39617U 14011B   26191.50028013  .00000147  00000+0  00000+0 0  9991
2 39617   0.0626 314.2374 0001784 162.6118  15.1666  1.00271823 44907
IRNSS-1B                
1 39635U 14017A   26191.72026316  .00000149  00000+0  00000+0 0  9997
2 39635  28.8825 239.9967 0022328 191.5584 171.4704  1.00274378 45034
LUCH-5V                 
1 39727U 14023A   26191.82455689 -.00000265  00000+0  00000+0 0  9996
2 39727   5.1873  69.4951 0001989  72.1798 178.5837  1.00275574 44591
KAZSAT-3                
1 39728U 14023B   26191.43576206  .00000071  00000+0  00000+0 0  9997
2 39728   0.0104  17.0509 0000239 270.3344 216.3511  1.00271045 42695
EUTELSAT 3B             
1 39773U 14030A   26191.85264567  .00000028  00000+0  00000+0 0  9997
2 39773   0.0612 350.3344 0004113 123.0259 125.4595  1.00269828 44301
ASIASAT 8 (AMOS-7)      
1 40107U 14046A   26191.87291176 -.00000324  00000+0  00000+0 0  9995
2 40107   0.0174 348.5458 0001316 130.5579 229.2387  1.00269525102381
ASIASAT 6               
1 40141U 14052A   26191.80454644  .00000000  00000+0  00000+0 0  9994
2 40141   0.0255  37.9102 0000847 130.8159 169.5384  1.00267169 43311
OPTUS 10                
1 40146U 14054A   26191.46610286 -.00000137  00000+0  00000+0 0  9991
2 40146   0.0483  69.5916 0001946  41.3086 141.2837  1.00271044 43260
MEASAT-3B               
1 40147U 14054B   26191.87013840 -.00000233  00000+0  00000+0 0  9997
2 40147   0.0351  42.7420 0003502  23.2565 267.5309  1.00270807 43148
HIMAWARI-8              
1 40267U 14060A   26190.88188485 -.00000264  00000+0  00000+0 0  9999
2 40267   0.0305 288.7018 0000829 203.5253 253.7182  1.00269387 42989
IRNSS-1C                
1 40269U 14061A   26191.79717975 -.00000160  00000+0  00000+0 0  9990
2 40269   6.5761  88.4824 0022146   4.9478 205.2945  1.00273045 42925
INTELSAT 30 (IS-30)     
1 40271U 14062A   26191.26289811 -.00000140  00000+0  00000+0 0  9997
2 40271   0.0192  51.4260 0001237 336.2755 260.0814  1.00271243  7020
ARSAT 1                 
1 40272U 14062B   26191.55244418 -.00000250  00000+0  00000+0 0  9996
2 40272   0.0481 282.6282 0001755 185.8826 307.0436  1.00271465 42854
EUTELSAT 53A            
1 40277U 14064A   26191.72000316  .00000108  00000+0  00000+0 0  9990
2 40277   0.0142 313.6779 0001804 246.0113  41.1440  1.00267699 41802
GSAT-16                 
1 40332U 14078A   26191.86294505  .00000093  00000+0  00000+0 0  9990
2 40332   0.0223 293.3660 0007281 158.4942 202.6528  1.00271998 42346
DIRECTV 14              
1 40333U 14078B   26191.62530064 -.00000116  00000+0  00000+0 0  9995
2 40333   0.0097  22.1783 0000268 296.2025  96.0342  1.00269904 42276
